[{"CCSDS_OMM_VERS":"2.0","COMMENT":"GENERATED VIA SPACE-TRACK.ORG API","CREATION_DATE":"2020-12-01T06:46:09","ORIGINATOR":"18 SPCS","OBJECT_NAME":"STARLINK-1582","OBJECT_ID":"2020-055S","CENTER_NAME":"EARTH","REF_FRAME":"TEME","TIME_SYSTEM":"UTC","MEAN_ELEMENT_THEORY":"SGP4","EPOCH":"2020-12-01T03:51:29.530944","MEAN_MOTION":"15.05579366","ECCENTRICITY":"0.00016210","INCLINATION":"53.0002","RA_OF_ASC_NODE":"126.1630","ARG_OF_PERICENTER":"85.9848","MEAN_ANOMALY":"274.1325","EPHEMERIS_TYPE":"0","CLASSIFICATION_TYPE":"U","NORAD_CAT_ID":"46043","ELEMENT_SET_NO":"999","REV_AT_EPOCH":"1830","BSTAR":"0.00000595020000","MEAN_MOTION_DOT":"-0.00000193","MEAN_MOTION_DDOT":"0.0000000000000","SEMIMAJOR_AXIS":"6927.864","PERIOD":"95.644","APOAPSIS":"550.852","PERIAPSIS":"548.606","OBJECT_TYPE":"PAYLOAD","RCS_SIZE":"LARGE","COUNTRY_CODE":"US","LAUNCH_DATE":"2020-08-07","SITE":"AFETR","DECAY_DATE":null,"FILE":"2895318","GP_ID":"166678520","TLE_LINE0":"0 STARLINK-1582","TLE_LINE1":"1 46043U 20055S   20336.16075846 -.00000193  00000-0  59502-5 0  9990","TLE_LINE2":"2 46043  53.0002 126.1630 0001621  85.9848 274.1325 15.05579366 18303"},{"CCSDS_OMM_VERS":"2.0","COMMENT":"GENERATED VIA SPACE-TRACK.ORG API","CREATION_DATE":"2020-12-01T14:36:09","ORIGINATOR":"18 SPCS","OBJECT_NAME":"STARLINK-1583","OBJECT_ID":"2020-055AP","CENTER_NAME":"EARTH","REF_FRAME":"TEME","TIME_SYSTEM":"UTC","MEAN_ELEMENT_THEORY":"SGP4","EPOCH":"2020-12-01T09:10:02.132832","MEAN_MOTION":"15.06491605","ECCENTRICITY":"0.00031020","INCLINATION":"53.0227","RA_OF_ASC_NODE":"115.1428","ARG_OF_PERICENTER":"102.3317","MEAN_ANOMALY":"257.8019","EPHEMERIS_TYPE":"0","CLASSIFICATION_TYPE":"U","NORAD_CAT_ID":"46064","ELEMENT_SET_NO":"999","REV_AT_EPOCH":"1846","BSTAR":"0.00020769000000","MEAN_MOTION_DOT":"0.00002820","MEAN_MOTION_DDOT":"0.0000000000000","SEMIMAJOR_AXIS":"6925.067","PERIOD":"95.586","APOAPSIS":"549.080","PERIAPSIS":"544.784","OBJECT_TYPE":"PAYLOAD","RCS_SIZE":"LARGE","COUNTRY_CODE":"US","LAUNCH_DATE":"2020-08-07","SITE":"AFETR","DECAY_DATE":null,"FILE":"2895514","GP_ID":"166683096","TLE_LINE0":"0 STARLINK-1583","TLE_LINE1":"1 46064U 20055AP  20336.38196913  .00002820  00000-0  20769-3 0  9995","TLE_LINE2":"2 46064  53.0227 115.1428 0003102 102.3317 257.8019 15.06491605 18464"},{"CCSDS_OMM_VERS":"2.0","COMMENT":"GENERATED VIA SPACE-TRACK.ORG API","CREATION_DATE":"2020-12-01T14:36:09","ORIGINATOR":"18 SPCS","OBJECT_NAME":"STARLINK-1573","OBJECT_ID":"2020-055AL","CENTER_NAME":"EARTH","REF_FRAME":"TEME","TIME_SYSTEM":"UTC","MEAN_ELEMENT_THEORY":"SGP4","EPOCH":"2020-12-01T09:15:23.591808","MEAN_MOTION":"15.06442975","ECCENTRICITY":"0.00010430","INCLINATION":"53.0162","RA_OF_ASC_NODE":"115.1275","ARG_OF_PERICENTER":"89.8362","MEAN_ANOMALY":"270.2746","EPHEMERIS_TYPE":"0","CLASSIFICATION_TYPE":"U","NORAD_CAT_ID":"46061","ELEMENT_SET_NO":"999","REV_AT_EPOCH":"1845","BSTAR":"0.00034353000000","MEAN_MOTION_DOT":"0.00004845","MEAN_MOTION_DDOT":"0.0000000000000","SEMIMAJOR_AXIS":"6925.216","PERIOD":"95.589","APOAPSIS":"547.804","PERIAPSIS":"546.359","OBJECT_TYPE":"PAYLOAD","RCS_SIZE":"LARGE","COUNTRY_CODE":"US","LAUNCH_DATE":"2020-08-07","SITE":"AFETR","DECAY_DATE":null,"FILE":"2895511","GP_ID":"166682583","TLE_LINE0":"0 STARLINK-1573","TLE_LINE1":"1 46061U 20055AL  20336.38568972  .00004845  00000-0  34353-3 0  9993","TLE_LINE2":"2 46061  53.0162 115.1275 0001043  89.8362 270.2746 15.06442975 18451"},{"CCSDS_OMM_VERS":"2.0","COMMENT":"GENERATED VIA SPACE-TRACK.ORG API","CREATION_DATE":"2020-12-01T14:36:09","ORIGINATOR":"18 SPCS","OBJECT_NAME":"STARLINK-1564","OBJECT_ID":"2020-055AH","CENTER_NAME":"EARTH","REF_FRAME":"TEME","TIME_SYSTEM":"UTC","MEAN_ELEMENT_THEORY":"SGP4","EPOCH":"2020-12-01T09:20:44.762208","MEAN_MOTION":"15.06394668","ECCENTRICITY":"0.00022690","INCLINATION":"53.0098","RA_OF_ASC_NODE":"115.1122","ARG_OF_PERICENTER":"79.6010","MEAN_ANOMALY":"280.5234","EPHEMERIS_TYPE":"0","CLASSIFICATION_TYPE":"U","NORAD_CAT_ID":"46058","ELEMENT_SET_NO":"999","REV_AT_EPOCH":"1846","BSTAR":"0.00063493000000","MEAN_MOTION_DOT":"0.00009187","MEAN_MOTION_DDOT":"0.0000000000000","SEMIMAJOR_AXIS":"6925.364","PERIOD":"95.592","APOAPSIS":"548.801","PERIAPSIS":"545.658","OBJECT_TYPE":"PAYLOAD","RCS_SIZE":"LARGE","COUNTRY_CODE":"US","LAUNCH_DATE":"2020-08-07","SITE":"AFETR","DECAY_DATE":null,"FILE":"2895508","GP_ID":"166682537","TLE_LINE0":"0 STARLINK-1564","TLE_LINE1":"1 46058U 20055AH  20336.38940697  .00009187  00000-0  63493-3 0  9998","TLE_LINE2":"2 46058  53.0098 115.1122 0002269  79.6010 280.5234 15.06394668 18466"},{"CCSDS_OMM_VERS":"2.0","COMMENT":"GENERATED VIA SPACE-TRACK.ORG API","CREATION_DATE":"2020-12-01T14:36:09","ORIGINATOR":"18 SPCS","OBJECT_NAME":"STARLINK-1544","OBJECT_ID":"2020-055E","CENTER_NAME":"EARTH","REF_FRAME":"TEME","TIME_SYSTEM":"UTC","MEAN_ELEMENT_THEORY":"SGP4","EPOCH":"2020-12-01T09:26:04.497504","MEAN_MOTION":"15.05575882","ECCENTRICITY":"0.00019840","INCLINATION":"53.0009","RA_OF_ASC_NODE":"125.1202","ARG_OF_PERICENTER":"90.3351","MEAN_ANOMALY":"269.7865","EPHEMERIS_TYPE":"0","CLASSIFICATION_TYPE":"U","NORAD_CAT_ID":"46031","ELEMENT_SET_NO":"999","REV_AT_EPOCH":"1834","BSTAR":"0.00010969000000","MEAN_MOTION_DOT":"0.00001319","MEAN_MOTION_DDOT":"0.0000000000000","SEMIMAJOR_AXIS":"6927.875","PERIOD":"95.644","APOAPSIS":"551.115","PERIAPSIS":"548.366","OBJECT_TYPE":"PAYLOAD","RCS_SIZE":"LARGE","COUNTRY_CODE":"US","LAUNCH_DATE":"2020-08-07","SITE":"AFETR","DECAY_DATE":null,"FILE":"2895503","GP_ID":"166682491","TLE_LINE0":"0 STARLINK-1544","TLE_LINE1":"1 46031U 20055E   20336.39310761  .00001319  00000-0  10969-3 0  9992","TLE_LINE2":"2 46031  53.0009 125.1202 0001984  90.3351 269.7865 15.05575882 18344"},{"CCSDS_OMM_VERS":"2.0","COMMENT":"GENERATED VIA SPACE-TRACK.ORG API","CREATION_DATE":"2020-12-01T14:36:09","ORIGINATOR":"18 SPCS","OBJECT_NAME":"STARLINK-1556","OBJECT_ID":"2020-055G","CENTER_NAME":"EARTH","REF_FRAME":"TEME","TIME_SYSTEM":"UTC","MEAN_ELEMENT_THEORY":"SGP4","EPOCH":"2020-12-01T09:45:11.204352","MEAN_MOTION":"15.05584521","ECCENTRICITY":"0.00022400","INCLINATION":"53.0020","RA_OF_ASC_NODE":"125.0603","ARG_OF_PERICENTER":"91.7178","MEAN_ANOMALY":"268.4066","EPHEMERIS_TYPE":"0","CLASSIFICATION_TYPE":"U","NORAD_CAT_ID":"46033","ELEMENT_SET_NO":"999","REV_AT_EPOCH":"1834","BSTAR":"0.00008035200000","MEAN_MOTION_DOT":"0.00000891","MEAN_MOTION_DDOT":"0.0000000000000","SEMIMAJOR_AXIS":"6927.849","PERIOD":"95.643","APOAPSIS":"551.265","PERIAPSIS":"548.162","OBJECT_TYPE":"PAYLOAD","RCS_SIZE":"LARGE","COUNTRY_CODE":"US","LAUNCH_DATE":"2020-08-07","SITE":"AFETR","DECAY_DATE":null,"FILE":"2895504","GP_ID":"166683016","TLE_LINE0":"0 STARLINK-1556","TLE_LINE1":"1 46033U 20055G   20336.40637968  .00000891  00000-0  80352-4 0  9995","TLE_LINE2":"2 46033  53.0020 125.0603 0002240  91.7178 268.4066 15.05584521 18340"},{"CCSDS_OMM_VERS":"2.0","COMMENT":"GENERATED VIA SPACE-TRACK.ORG API","CREATION_DATE":"2020-12-01T14:36:09","ORIGINATOR":"18 SPCS","OBJECT_NAME":"STARLINK-1524","OBJECT_ID":"2020-055W","CENTER_NAME":"EARTH","REF_FRAME":"TEME","TIME_SYSTEM":"UTC","MEAN_ELEMENT_THEORY":"SGP4","EPOCH":"2020-12-01T09:52:37.280640","MEAN_MOTION":"15.06307072","ECCENTRICITY":"0.00029470","INCLINATION":"53.0210","RA_OF_ASC_NODE":"115.0054","ARG_OF_PERICENTER":"54.4617","MEAN_ANOMALY":"305.6646","EPHEMERIS_TYPE":"0","CLASSIFICATION_TYPE":"U","NORAD_CAT_ID":"46047","ELEMENT_SET_NO":"999","REV_AT_EPOCH":"1848","BSTAR":"0.00063923000000","MEAN_MOTION_DOT":"0.00009229","MEAN_MOTION_DDOT":"0.0000000000000","SEMIMAJOR_AXIS":"6925.633","PERIOD":"95.598","APOAPSIS":"549.539","PERIAPSIS":"545.457","OBJECT_TYPE":"PAYLOAD","RCS_SIZE":"LARGE","COUNTRY_CODE":"US","LAUNCH_DATE":"2020-08-07","SITE":"AFETR","DECAY_DATE":null,"FILE":"2895494","GP_ID":"166682882","TLE_LINE0":"0 STARLINK-1524","TLE_LINE1":"1 46047U 20055W   20336.41154260  .00009229  00000-0  63923-3 0  9998","TLE_LINE2":"2 46047  53.0210 115.0054 0002947  54.4617 305.6646 15.06307072 18481"},{"CCSDS_OMM_VERS":"2.0","COMMENT":"GENERATED VIA SPACE-TRACK.ORG API","CREATION_DATE":"2020-12-01T14:36:09","ORIGINATOR":"18 SPCS","OBJECT_NAME":"STARLINK-1567","OBJECT_ID":"2020-055M","CENTER_NAME":"EARTH","REF_FRAME":"TEME","TIME_SYSTEM":"UTC","MEAN_ELEMENT_THEORY":"SGP4","EPOCH":"2020-12-01T09:54:44.054496","MEAN_MOTION":"15.05581601","ECCENTRICITY":"0.00021110","INCLINATION":"53.0018","RA_OF_ASC_NODE":"125.0300","ARG_OF_PERICENTER":"99.4928","MEAN_ANOMALY":"260.6299","EPHEMERIS_TYPE":"0","CLASSIFICATION_TYPE":"U","NORAD_CAT_ID":"46038","ELEMENT_SET_NO":"999","REV_AT_EPOCH":"1834","BSTAR":"-0.00004706700000","MEAN_MOTION_DOT":"-0.00000965","MEAN_MOTION_DDOT":"0.0000000000000","SEMIMAJOR_AXIS":"6927.857","PERIOD":"95.644","APOAPSIS":"551.185","PERIAPSIS":"548.260","OBJECT_TYPE":"PAYLOAD","RCS_SIZE":"LARGE","COUNTRY_CODE":"US","LAUNCH_DATE":"2020-08-07","SITE":"AFETR","DECAY_DATE":null,"FILE":"2895509","GP_ID":"166683059","TLE_LINE0":"0 STARLINK-1567","TLE_LINE1":"1 46038U 20055M   20336.41300989 -.00000965  00000-0 -47067-4 0  9991","TLE_LINE2":"2 46038  53.0018 125.0300 0002111  99.4928 260.6299 15.05581601 18349"}]